[{"OBJECT_NAME":"SUPERVIEW NEO-2 02","OBJECT_ID":"2022-082C","EPOCH":"2026-03-10T00:20:09.225888","MEAN_MOTION":15.24501295,"ECCENTRICITY":0.00016181,"INCLINATION":97.3937,"RA_OF_ASC_NODE":80.3251,"ARG_OF_PERICENTER":90.4138,"MEAN_ANOMALY":269.7285,"EPHEMERIS_TYPE":0,"CLASSIFICATION_TYPE":"U","NORAD_CAT_ID":53130,"ELEMENT_SET_NO":999,"REV_AT_EPOCH":20310,"BSTAR":-4.28097e-7,"MEAN_MOTION_DOT":-8.1e-7,"MEAN_MOTION_DDOT":0},{"OBJECT_NAME":"SITRO-AIS-64","OBJECT_ID":"2025-313AW","EPOCH":"2026-03-09T22:35:09.372480","MEAN_MOTION":15.230077,"ECCENTRICITY":0.00087165,"INCLINATION":97.4006,"RA_OF_ASC_NODE":145.3433,"ARG_OF_PERICENTER":353.6224,"MEAN_ANOMALY":6.49,"EPHEMERIS_TYPE":0,"CLASSIFICATION_TYPE":"U","NORAD_CAT_ID":67292,"ELEMENT_SET_NO":999,"REV_AT_EPOCH":1086,"BSTAR":0.00054511054,"MEAN_MOTION_DOT":0.00012775,"MEAN_MOTION_DDOT":0}]
